{"type": "FeatureCollection", "features": [ {"type": "Feature", "properties": {"norad_id": 30146, "name": "FENGYUN 1C DEB", "group": "fengyun-1c-debris", "lat": -25.28767085560952, "lon": -42.97459383835489, "alt_km": 888.5282202372682, "timestamp": "2025-12-06T07:31:40.511158+00:00", "meta": {"OBJECT_NAME": "FENGYUN 1C DEB", "OBJECT_ID": "1999-025TB", "EPOCH": "2025-12-04T23:58:33.617280", "MEAN_MOTION": 13.86579526, "ECCENTRICITY": 0.01787498, "INCLINATION": 98.02, "RA_OF_ASC_NODE": 139.7162, "ARG_OF_PERICENTER": 144.3115, "MEAN_ANOMALY": 340.5504, "EPHEMERIS_TYPE": 0, "CLASSIFICATION_TYPE": "U", "NORAD_CAT_ID": 30146, "ELEMENT_SET_NO": 999, "REV_AT_EPOCH": 95310, "BSTAR": 0.0012145345, "MEAN_MOTION_DOT": 1.567e-05, "MEAN_MOTION_DDOT": 0}, "tle": {"line1": "1 30146U 99025TB  25338.99900020  .00001567  00000+0  12145-2 0  9992", "line2": "2 30146  98.0200 139.7162 0178749 144.3115 340.5504 13.86579526953100"}}, "geometry": {"type": "Point", "coordinates": [-42.97459383835489, -25.28767085560952]}}, {"type": "Feature", "properties": {"norad_id": 30148, "name": "FENGYUN 1C DEB", "group": "fengyun-1c-debris", "lat": -3.8084450543555954, "lon": -51.17394480846087, "alt_km": 851.6227648641943, "timestamp": "2025-12-06T07:31:40.511168+00:00", "meta": {"OBJECT_NAME": "FENGYUN 1C DEB", "OBJECT_ID": "1999-025TD", "EPOCH": "2025-12-05T00:07:18.202656", "MEAN_MOTION": 13.88460265, "ECCENTRICITY": 0.01348238, "INCLINATION": 99.5453, "RA_OF_ASC_NODE": 128.1291, "ARG_OF_PERICENTER": 217.2277, "MEAN_ANOMALY": 269.8187, "EPHEMERIS_TYPE": 0, "CLASSIFICATION_TYPE": "U", "NORAD_CAT_ID": 30148, "ELEMENT_SET_NO": 999, "REV_AT_EPOCH": 95409, "BSTAR": 0.0015189089, "MEAN_MOTION_DOT": 1.913e-05, "MEAN_MOTION_DDOT": 0}, "tle": {"line1": "1 30148U 99025TD  25339.00507179  .00001913  00000+0  15189-2 0  9991", "line2": "2 30148  99.5453 128.1291 0134823 217.2277 269.8187 13.88460265954097"}}, "geometry": {"type": "Point", "coordinates": [-51.17394480846087, -3.8084450543555954]}}, {"type": "Feature", "properties": {"norad_id": 30150, "name": "FENGYUN 1C DEB", "group": "fengyun-1c-debris", "lat": 5.523530924474485, "lon": 115.67220358717924, "alt_km": 837.696260043368, "timestamp": "2025-12-06T07:31:40.511178+00:00", "meta": {"OBJECT_NAME": "FENGYUN 1C DEB", "OBJECT_ID": "1999-025TF", "EPOCH": "2025-12-05T07:21:47.506176", "MEAN_MOTION": 13.86580485, "ECCENTRICITY": 0.01466706, "INCLINATION": 98.9942, "RA_OF_ASC_NODE": 115.5817, "ARG_OF_PERICENTER": 356.3327, "MEAN_ANOMALY": 25.7943, "EPHEMERIS_TYPE": 0, "CLASSIFICATION_TYPE": "U", "NORAD_CAT_ID": 30150, "ELEMENT_SET_NO": 999, "REV_AT_EPOCH": 95355, "BSTAR": 0.00073792714, "MEAN_MOTION_DOT": 8.91e-06, "MEAN_MOTION_DDOT": 0}, "tle": {"line1": "1 30150U 99025TF  25339.30679984  .00000891  00000+0  73793-3 0  9991", "line2": "2 30150  98.9942 115.5817 0146670 356.3327  25.7943 13.86580485953558"}}, "geometry": {"type": "Point", "coordinates": [115.67220358717924, 5.523530924474485]}}, {"type": "Feature", "properties": {"norad_id": 30151, "name": "FENGYUN 1C DEB", "group": "fengyun-1c-debris", "lat": -34.11012211555946, "lon": 162.30370196118693, "alt_km": 934.9623829261864, "timestamp": "2025-12-06T07:31:40.511188+00:00", "meta": {"OBJECT_NAME": "FENGYUN 1C DEB", "OBJECT_ID": "1999-025TG", "EPOCH": "2025-12-03T00:43:17.165856", "MEAN_MOTION": 13.84448896, "ECCENTRICITY": 0.0163271, "INCLINATION": 99.0635, "RA_OF_ASC_NODE": 345.34, "ARG_OF_PERICENTER": 304.9779, "MEAN_ANOMALY": 114.6215, "EPHEMERIS_TYPE": 0, "CLASSIFICATION_TYPE": "U", "NORAD_CAT_ID": 30151, "ELEMENT_SET_NO": 999, "REV_AT_EPOCH": 95111, "BSTAR": 0.00089012415, "MEAN_MOTION_DOT": 1.062e-05, "MEAN_MOTION_DDOT": 0}, "tle": {"line1": "1 30151U 99025TG  25337.03005979  .00001062  00000+0  89012-3 0  9999", "line2": "2 30151  99.0635 345.3400 0163271 304.9779 114.6215 13.84448896951114"}}, "geometry": {"type": "Point", "coordinates": [162.30370196118693, -34.11012211555946]}}, {"type": "Feature", "properties": {"norad_id": 30152, "name": "FENGYUN 1C DEB", "group": "fengyun-1c-debris", "lat": 54.836759961899475, "lon": -174.97733830099787, "alt_km": 819.4550854634253, "timestamp": "2025-12-06T07:31:40.511198+00:00", "meta": {"OBJECT_NAME": "FENGYUN 1C DEB", "OBJECT_ID": "1999-025TH", "EPOCH": "2025-12-05T02:02:02.406912", "MEAN_MOTION": 13.96610155, "ECCENTRICITY": 0.01611105, "INCLINATION": 99.0799, "RA_OF_ASC_NODE": 196.9302, "ARG_OF_PERICENTER": 106.484, "MEAN_ANOMALY": 255.4093, "EPHEMERIS_TYPE": 0, "CLASSIFICATION_TYPE": "U", "NORAD_CAT_ID": 30152, "ELEMENT_SET_NO": 999, "REV_AT_EPOCH": 95271, "BSTAR": 0.0043764544, "MEAN_MOTION_DOT": 6.725e-05, "MEAN_MOTION_DDOT": 0}, "tle": {"line1": "1 30152U 99025TH  25339.08475008  .00006725  00000+0  43765-2 0  9996", "line2": "2 30152  99.0799 196.9302 0161110 106.4840 255.4093 13.96610155952718"}}, "geometry": {"type": "Point", "coordinates": [-174.97733830099787, 54.836759961899475]}}, {"type": "Feature", "properties": {"norad_id": 30153, "name": "FENGYUN 1C DEB", "group": "fengyun-1c-debris", "lat": 69.1652433155157, "lon": 179.0926565767665, "alt_km": 948.8292717912118, "timestamp": "2025-12-06T07:31:40.511208+00:00", "meta": {"OBJECT_NAME": "FENGYUN 1C DEB", "OBJECT_ID": "1999-025TJ", "EPOCH": "2025-12-03T21:50:19.984992", "MEAN_MOTION": 13.78731597, "ECCENTRICITY": 0.02008215, "INCLINATION": 100.4661, "RA_OF_ASC_NODE": 327.3826, "ARG_OF_PERICENTER": 27.9772, "MEAN_ANOMALY": 33.217, "EPHEMERIS_TYPE": 0, "CLASSIFICATION_TYPE": "U", "NORAD_CAT_ID": 30153, "ELEMENT_SET_NO": 999, "REV_AT_EPOCH": 94653, "BSTAR": 0.001678671, "MEAN_MOTION_DOT": 1.931e-05, "MEAN_MOTION_DDOT": 0}, "tle": {"line1": "1 30153U 99025TJ  25337.90995353  .00001931  00000+0  16787-2 0  9994", "line2": "2 30153 100.4661 327.3826 0200821  27.9772  33.2170 13.78731597946534"}}, "geometry": {"type": "Point", "coordinates": [179.0926565767665, 69.1652433155157]}}, {"type": "Feature", "properties": {"norad_id": 30154, "name": "FENGYUN 1C DEB", "group": "fengyun-1c-debris", "lat": -8.930442882189109, "lon": -158.61608921808298, "alt_km": 827.4905306748569, "timestamp": "2025-12-06T07:31:40.511219+00:00", "meta": {"OBJECT_NAME": "FENGYUN 1C DEB", "OBJECT_ID": "1999-025TK", "EPOCH": "2025-12-05T01:27:14.366016", "MEAN_MOTION": 13.85943744, "ECCENTRICITY": 0.01826653, "INCLINATION": 98.4496, "RA_OF_ASC_NODE": 21.5909, "ARG_OF_PERICENTER": 219.6784, "MEAN_ANOMALY": 201.4835, "EPHEMERIS_TYPE": 0, "CLASSIFICATION_TYPE": "U", "NORAD_CAT_ID": 30154, "ELEMENT_SET_NO": 999, "REV_AT_EPOCH": 94878, "BSTAR": 0.0029858806, "MEAN_MOTION_DOT": 3.873e-05, "MEAN_MOTION_DDOT": 0}, "tle": {"line1": "1 30154U 99025TK  25339.06058294  .00003873  00000+0  29859-2 0  9999", "line2": "2 30154  98.4496  21.5909 0182665 219.6784 201.4835 13.85943744948783"}}, "geometry": {"type": "Point", "coordinates": [-158.61608921808298, -8.930442882189109]}}, {"type": "Feature", "properties": {"norad_id": 30155, "name": "FENGYUN 1C DEB", "group": "fengyun-1c-debris", "lat": -31.459760397388777, "lon": 59.74739194825658, "alt_km": 840.4321007154385, "timestamp": "2025-12-06T07:31:40.511229+00:00", "meta": {"OBJECT_NAME": "FENGYUN 1C DEB", "OBJECT_ID": "1999-025TL", "EPOCH": "2025-12-05T03:42:35.711136", "MEAN_MOTION": 13.73759851, "ECCENTRICITY": 0.02418582, "INCLINATION": 99.7522, "RA_OF_ASC_NODE": 52.525, "ARG_OF_PERICENTER": 3.5592, "MEAN_ANOMALY": 356.7208, "EPHEMERIS_TYPE": 0, "CLASSIFICATION_TYPE": "U", "NORAD_CAT_ID": 30155, "ELEMENT_SET_NO": 999, "REV_AT_EPOCH": 93760, "BSTAR": 0.0032317697, "MEAN_MOTION_DOT": 3.686e-05, "MEAN_MOTION_DDOT": 0}, "tle": {"line1": "1 30155U 99025TL  25339.15457999  .00003686  00000+0  32318-2 0  9991", "line2": "2 30155  99.7522  52.5250 0241858   3.5592 356.7208 13.73759851937606"}}, "geometry": {"type": "Point", "coordinates": [59.74739194825658, -31.459760397388777]}}, {"type": "Feature", "properties": {"norad_id": 30156, "name": "FENGYUN 1C DEB", "group": "fengyun-1c-debris", "lat": 61.84012759524856, "lon": -69.38949988112806, "alt_km": 1071.2697656683786, "timestamp": "2025-12-06T07:31:40.511239+00:00", "meta": {"OBJECT_NAME": "FENGYUN 1C DEB", "OBJECT_ID": "1999-025TM", "EPOCH": "2025-12-05T03:42:14.256288", "MEAN_MOTION": 13.80770374, "ECCENTRICITY": 0.01999985, "INCLINATION": 98.9178, "RA_OF_ASC_NODE": 306.5722, "ARG_OF_PERICENTER": 283.3017, "MEAN_ANOMALY": 138.8495, "EPHEMERIS_TYPE": 0, "CLASSIFICATION_TYPE": "U", "NORAD_CAT_ID": 30156, "ELEMENT_SET_NO": 999, "REV_AT_EPOCH": 94586, "BSTAR": 0.0031124957, "MEAN_MOTION_DOT": 3.767e-05, "MEAN_MOTION_DDOT": 0}, "tle": {"line1": "1 30156U 99025TM  25339.15433167  .00003767  00000+0  31125-2 0  9998", "line2": "2 30156  98.9178 306.5722 0199998 283.3017 138.8495 13.80770374945863"}}, "geometry": {"type": "Point", "coordinates": [-69.38949988112806, 61.84012759524856]}}, {"type": "Feature", "properties": {"norad_id": 30157, "name": "FENGYUN 1C DEB", "group": "fengyun-1c-debris", "lat": -62.8927955677984, "lon": 94.62386860310176, "alt_km": 746.5121624301955, "timestamp": "2025-12-06T07:31:40.511249+00:00", "meta": {"OBJECT_NAME": "FENGYUN 1C DEB", "OBJECT_ID": "1999-025TN", "EPOCH": "2025-12-04T06:13:49.285344", "MEAN_MOTION": 14.44893119, "ECCENTRICITY": 0.0036911, "INCLINATION": 98.7174, "RA_OF_ASC_NODE": 75.075, "ARG_OF_PERICENTER": 217.8089, "MEAN_ANOMALY": 199.005, "EPHEMERIS_TYPE": 0, "CLASSIFICATION_TYPE": "U", "NORAD_CAT_ID": 30157, "ELEMENT_SET_NO": 999, "REV_AT_EPOCH": 97950, "BSTAR": 0.0054888, "MEAN_MOTION_DOT": 0.00019275, "MEAN_MOTION_DDOT": 0}, "tle": {"line1": "1 30157U 99025TN  25338.25959821  .00019275  00000+0  54888-2 0  9991", "line2": "2 30157  98.7174  75.0750 0036911 217.8089 199.0050 14.44893119979501"}}, "geometry": {"type": "Point", "coordinates": [94.62386860310176, -62.8927955677984]}}]}